{
  "norad_id": 55829,
  "name": "ONEWEB-0670",
  "history": [
    {
      "epoch": "2026-03-28T14:29:06.145440Z",
      "apogee_km": 1207.0181227043868,
      "perigee_km": 1204.5533478154275,
      "latitude_deg": 7.417516335055489e-06,
      "longitude_deg": -97.46352101045237,
      "height_km": 1208.8974247454498,
      "semi_major_axis_km": 7583.922735259906,
      "eccentricity": 0.0001625,
      "inclination_deg": 87.8945,
      "raan_deg": 305.8337,
      "arg_perigee_deg": 100.308,
      "mean_anomaly_deg": 259.8233,
      "mean_motion_rev_day": 13.14504001
    },
    {
      "epoch": "2026-03-29T03:16:22.134720Z",
      "apogee_km": 1207.0293540595994,
      "perigee_km": 1204.5372778437777,
      "latitude_deg": 3.806982567639169e-06,
      "longitude_deg": 70.08838152251938,
      "height_km": 1208.8972079305781,
      "semi_major_axis_km": 7583.920315951688,
      "eccentricity": 0.0001643,
      "inclination_deg": 87.8943,
      "raan_deg": 305.7274,
      "arg_perigee_deg": 100.2982,
      "mean_anomaly_deg": 259.8333,
      "mean_motion_rev_day": 13.1450463
    },
    {
      "epoch": "2026-03-30T01:11:40.996320Z",
      "apogee_km": 1207.0455440807464,
      "perigee_km": 1204.521918618183,
      "latitude_deg": -1.2647138625370878e-05,
      "longitude_deg": 100.17719072827767,
      "height_km": 1208.9069992075904,
      "semi_major_axis_km": 7583.920731349464,
      "eccentricity": 0.00016638,
      "inclination_deg": 87.8941,
      "raan_deg": 305.5451,
      "arg_perigee_deg": 100.6023,
      "mean_anomaly_deg": 259.5294,
      "mean_motion_rev_day": 13.14504522
    },
    {
      "epoch": "2026-03-30T13:58:57.028800Z",
      "apogee_km": 1207.063885630634,
      "perigee_km": 1204.5056771353384,
      "latitude_deg": 1.1207954511150913e-05,
      "longitude_deg": -92.27118552570954,
      "height_km": 1208.9041524901338,
      "semi_major_axis_km": 7583.921781382986,
      "eccentricity": 0.00016866,
      "inclination_deg": 87.8939,
      "raan_deg": 305.4387,
      "arg_perigee_deg": 100.2821,
      "mean_anomaly_deg": 259.8499,
      "mean_motion_rev_day": 13.14504249
    },
    {
      "epoch": "2026-03-30T21:17:23.246304Z",
      "apogee_km": 1207.0599985920835,
      "perigee_km": 1204.5052794224885,
      "latitude_deg": 3.882078509109687e-05,
      "longitude_deg": 157.75867680204303,
      "height_km": 1208.9022742738518,
      "semi_major_axis_km": 7583.919639007286,
      "eccentricity": 0.00016843,
      "inclination_deg": 87.8939,
      "raan_deg": 305.3779,
      "arg_perigee_deg": 100.3083,
      "mean_anomaly_deg": 259.8237,
      "mean_motion_rev_day": 13.14504806
    },
    {
      "epoch": "2026-03-31T13:43:52.363776Z",
      "apogee_km": 1207.0676770410928,
      "perigee_km": 1204.5012780130974,
      "latitude_deg": -5.733891305307098e-05,
      "longitude_deg": -89.67457377136202,
      "height_km": 1208.9018860026474,
      "semi_major_axis_km": 7583.921477527095,
      "eccentricity": 0.0001692,
      "inclination_deg": 87.8939,
      "raan_deg": 305.2412,
      "arg_perigee_deg": 100.1599,
      "mean_anomaly_deg": 259.9721,
      "mean_motion_rev_day": 13.14504328
    },
    {
      "epoch": "2026-04-01T20:47:14.090784Z",
      "apogee_km": 1207.110528438462,
      "perigee_km": 1204.4682884777549,
      "latitude_deg": -2.7527855755316634e-05,
      "longitude_deg": 162.95117373926843,
      "height_km": 1208.9110532430286,
      "semi_major_axis_km": 7583.926408458108,
      "eccentricity": 0.0001742,
      "inclination_deg": 87.8937,
      "raan_deg": 304.9829,
      "arg_perigee_deg": 100.056,
      "mean_anomaly_deg": 260.0766,
      "mean_motion_rev_day": 13.14503046
    }
  ]
}